NORAD_CAT_ID,OBJECT_NAME,OBJECT_TYPE,EPOCH,MEAN_MOTION,ECCENTRICITY,INCLINATION,RA_OF_ASC_NODE,ARG_OF_PERICENTER,MEAN_ANOMALY,BSTAR,MEAN_MOTION_DOT,MEAN_MOTION_DDOT,TLE_LINE0,TLE_LINE1,TLE_LINE2,SEMIMAJOR_AXIS,PERIOD,APOGEE,PERIGEE,DECAYED
51803.0,STARLINK-3544,PAYLOAD,2024-07-19 14:14:39,15.08858817,0.0001451,53.2185,154.0779,77.6723,282.4432,1.1322e-05,-1.08e-06,0.0,0 STARLINK-3544,1 51803U 22017AM  24201.59350746 -.00000108  00000-0  11322-4 0  9990,2 51803  53.2185 154.0779 0001451  77.6723 282.4432 15.08858817133620,6917.823,95.436,540.692,538.684,0.0
51803.0,STARLINK-3544,PAYLOAD,2024-07-20 02:57:45,15.08827842,0.0001085,53.2179,151.7016,91.7048,268.4068,0.00012128,1.642e-05,0.0,0 STARLINK-3544,1 51803U 22017AM  24202.12344744  .00001642  00000-0  12128-3 0  9998,2 51803  53.2179 151.7016 0001085  91.7048 268.4068 15.08827842133703,6917.918,95.438,540.533,539.032,0.0
51803.0,STARLINK-3544,PAYLOAD,2024-07-20 06:08:31,15.0884069,0.0001322,53.2161,151.1018,100.7382,259.3759,0.0001299,1.78e-05,0.0,0 STARLINK-3544,1 51803U 22017AM  24202.25591868  .00001780  00000-0  12990-3 0  9993,2 51803  53.2161 151.1018 0001322 100.7382 259.3759 15.08840690133720,6917.878,95.438,540.658,538.829,0.0
51803.0,STARLINK-3544,PAYLOAD,2024-07-20 14:05:26,15.0884697,0.000154,53.2169,149.6194,100.1288,259.9878,0.00020454,2.969e-05,0.0,0 STARLINK-3544,1 51803U 22017AM  24202.58711701  .00002969  00000-0  20454-3 0  9993,2 51803  53.2169 149.6194 0001540 100.1288 259.9878 15.08846970133776,6917.859,95.437,540.789,538.659,0.0
51803.0,STARLINK-3544,PAYLOAD,2024-07-21 05:59:18,15.08838463,0.0001554,53.217,146.6419,111.9898,248.126,-4.6867e-06,-3.63e-06,0.0,0 STARLINK-3544,1 51803U 22017AM  24203.24952125 -.00000363  00000-0 -46867-5 0  9990,2 51803  53.2170 146.6419 0001554 111.9898 248.1260 15.08838463133871,6917.885,95.438,540.825,538.675,0.0
51803.0,STARLINK-3544,PAYLOAD,2024-07-22 02:39:20,15.08830776,0.0001453,53.2171,142.777,112.7225,247.3921,-2.633e-05,-7.07e-06,0.0,0 STARLINK-3544,1 51803U 22017AM  24204.11065371 -.00000707  00000-0 -26330-4 0  9999,2 51803  53.2171 142.7770 0001453 112.7225 247.3921 15.08830776134000,6917.909,95.438,540.779,538.768,0.0
51803.0,STARLINK-3544,PAYLOAD,2024-07-22 05:50:06,15.08829857,0.0001472,53.2171,142.1825,112.6642,247.4506,-3.8058e-05,-8.93e-06,0.0,0 STARLINK-3544,1 51803U 22017AM  24204.24313511 -.00000893  00000-0 -38058-4 0  9991,2 51803  53.2171 142.1825 0001472 112.6642 247.4506 15.08829857134028,6917.911,95.438,540.795,538.758,0.0
51803.0,STARLINK-3544,PAYLOAD,2024-07-23 02:30:06,15.08847924,0.0001117,53.2152,138.322,94.7358,265.3761,0.00026099,3.869e-05,0.0,0 STARLINK-3544,1 51803U 22017AM  24205.10424587  .00003869  00000-0  26099-3 0  9998,2 51803  53.2152 138.3220 0001117  94.7358 265.3761 15.08847924134154,6917.856,95.437,540.494,538.948,0.0
51803.0,STARLINK-3544,PAYLOAD,2024-07-23 12:02:25,15.08851748,0.00011,53.2153,136.5382,85.8354,274.2764,0.0002941,4.397e-05,0.0,0 STARLINK-3544,1 51803U 22017AM  24205.50168383  .00004397  00000-0  29410-3 0  9998,2 51803  53.2153 136.5382 0001100  85.8354 274.2764 15.08851748134211,6917.844,95.437,540.47,538.949,0.0
51803.0,STARLINK-3544,PAYLOAD,2024-07-23 19:59:22,15.08821288,0.0001243,53.2152,135.0515,80.2541,279.8591,-0.00022522,-3.869e-05,0.0,0 STARLINK-3544,1 51803U 22017AM  24205.83289912 -.00003869  00000-0 -22522-3 0  9998,2 51803  53.2152 135.0515 0001243  80.2541 279.8591 15.08821288134267,6917.938,95.439,540.662,538.943,0.0
51803.0,STARLINK-3544,PAYLOAD,2024-07-24 03:56:17,15.08832347,0.0001429,53.2167,133.5646,85.2244,274.8911,9.5711e-07,-2.73e-06,0.0,0 STARLINK-3544,1 51803U 22017AM  24206.16409641 -.00000273  00000-0  95711-6 0  9996,2 51803  53.2167 133.5646 0001429  85.2244 274.8911 15.08832347134317,6917.904,95.438,540.757,538.78,0.0
51803.0,STARLINK-3544,PAYLOAD,2024-07-24 23:00:55,15.08851943,0.0001419,53.2167,129.9961,86.4096,273.7058,0.0011268,0.00017696,0.0,0 STARLINK-3544,1 51803U 22017AM  24206.95897854  .00017696  00000-0  11268-2 0  9997,2 51803  53.2167 129.9961 0001419  86.4096 273.7058 15.08851943134439,6917.844,95.437,540.691,538.727,0.0
51803.0,STARLINK-3544,PAYLOAD,2024-07-25 00:36:18,15.08859118,0.0001401,53.2166,129.6987,87.1637,272.9516,0.0013592,0.00021421,0.0,0 STARLINK-3544,1 51803U 22017AM  24207.02521753  .00021421  00000-0  13592-2 0  9991,2 51803  53.2166 129.6987 0001401  87.1637 272.9516 15.08859118134446,6917.822,95.436,540.656,538.718,0.0
51803.0,STARLINK-3544,PAYLOAD,2024-07-26 03:37:51,15.0885637,0.0001345,53.2155,124.6416,94.556,265.5585,0.00042925,6.553e-05,0.0,0 STARLINK-3544,1 51803U 22017AM  24208.15129046  .00006553  00000-0  42925-3 0  9997,2 51803  53.2155 124.6416 0001345  94.5560 265.5585 15.08856370134610,6917.83,95.437,540.626,538.765,0.0
51803.0,STARLINK-3544,PAYLOAD,2024-07-26 11:34:46,15.08873132,0.000146,53.2159,123.1561,83.2478,276.868,0.00090042,0.00014084,0.0,0 STARLINK-3544,1 51803U 22017AM  24208.48248336  .00014084  00000-0  90042-3 0  9998,2 51803  53.2159 123.1561 0001460  83.2478 276.8680 15.08873132134661,6917.779,95.435,540.654,538.634,0.0
51803.0,STARLINK-3544,PAYLOAD,2024-07-27 22:33:15,15.08822094,0.0001425,53.2153,116.6127,64.3645,295.7494,0.0014908,0.00023506,0.0,0 STARLINK-3544,1 51803U 22017AM  24209.93976836  .00023506  00000-0  14908-2 0  9997,2 51803  53.2153 116.6127 0001425  64.3645 295.7494 15.08822094134885,6917.935,95.439,540.786,538.814,0.0
51803.0,STARLINK-3544,PAYLOAD,2024-07-28 04:54:48,15.08826461,0.0001477,53.2154,115.4227,79.4809,280.635,0.000911,0.00014235,0.0,0 STARLINK-3544,1 51803U 22017AM  24210.20473073  .00014235  00000-0  91100-3 0  9993,2 51803  53.2154 115.4227 0001477  79.4809 280.6350 15.08826461134921,6917.922,95.438,540.809,538.765,0.0
51803.0,STARLINK-3544,PAYLOAD,2024-07-28 20:48:40,15.08830788,0.0001544,53.2163,112.4498,97.9215,262.1952,0.00045277,6.923e-05,0.0,0 STARLINK-3544,1 51803U 22017AM  24210.86713591  .00006923  00000-0  45277-3 0  9996,2 51803  53.2163 112.4498 0001544  97.9215 262.1952 15.08830788135021,6917.909,95.438,540.842,538.705,0.0
51803.0,STARLINK-3544,PAYLOAD,2024-07-28 22:24:03,15.08832174,0.0001572,53.2167,112.1527,95.8177,264.2994,0.00045488,6.957e-05,0.0,0 STARLINK-3544,1 51803U 22017AM  24210.93337622  .00006957  00000-0  45488-3 0  9992,2 51803  53.2167 112.1527 0001572  95.8177 264.2994 15.08832174135031,6917.904,95.438,540.857,538.682,0.0
51803.0,STARLINK-3544,PAYLOAD,2024-07-28 23:59:26,15.08833076,0.0001573,53.2167,111.8553,95.8938,264.2233,0.00044883,6.861e-05,0.0,0 STARLINK-3544,1 51803U 22017AM  24210.99961644  .00006861  00000-0  44883-3 0  9997,2 51803  53.2167 111.8553 0001573  95.8938 264.2233 15.08833076135041,6917.902,95.438,540.855,538.678,0.0
51803.0,STARLINK-3544,PAYLOAD,2024-07-29 22:14:50,15.08838998,0.0001593,53.2172,107.692,95.7058,264.4115,0.00029031,4.335e-05,0.0,0 STARLINK-3544,1 51803U 22017AM  24211.92697846  .00004335  00000-0  29031-3 0  9993,2 51803  53.2172 107.6920 0001593  95.7058 264.4115 15.08838998135186,6917.883,95.438,540.85,538.646,0.0
51803.0,STARLINK-3544,PAYLOAD,2024-07-29 23:50:14,15.08840576,0.0001593,53.2173,107.3944,97.4022,262.7151,0.00031792,4.775e-05,0.0,0 STARLINK-3544,1 51803U 22017AM  24211.99321811  .00004775  00000-0  31792-3 0  9991,2 51803  53.2173 107.3944 0001593  97.4022 262.7151 15.08840576135197,6917.879,95.438,540.846,538.642,0.0
51803.0,STARLINK-3544,PAYLOAD,2024-07-30 22:05:37,15.08852589,0.0001569,53.2173,103.2314,99.2388,260.8781,0.00038832,5.9e-05,0.0,0 STARLINK-3544,1 51803U 22017AM  24212.92057354  .00005900  00000-0  38832-3 0  9996,2 51803  53.2173 103.2314 0001569  99.2388 260.8781 15.08852589135332,6917.842,95.437,540.792,538.622,0.0
51803.0,STARLINK-3544,PAYLOAD,2024-07-31 09:13:18,15.08869691,0.0001429,53.2176,101.1522,97.3137,262.8018,0.00059404,9.186e-05,0.0,0 STARLINK-3544,1 51803U 22017AM  24213.38424337  .00009186  00000-0  59404-3 0  9994,2 51803  53.2176 101.1522 0001429  97.3137 262.8018 15.08869691135404,6917.79,95.436,540.643,538.666,0.0
51803.0,STARLINK-3544,PAYLOAD,2024-07-31 20:21:01,15.08835194,0.0001557,53.2175,99.0717,101.069,259.0477,-0.00010401,-1.943e-05,0.0,0 STARLINK-3544,1 51803U 22017AM  24213.84793531 -.00001943  00000-0 -10401-3 0  9999,2 51803  53.2175  99.0717 0001557 101.0690 259.0477 15.08835194135478,6917.895,95.438,540.837,538.683,0.0
51803.0,STARLINK-3544,PAYLOAD,2024-07-31 23:31:47,15.08835731,0.0001461,53.2178,98.4779,96.4676,263.6483,-9.3156e-05,-1.77e-05,0.0,0 STARLINK-3544,1 51803U 22017AM  24213.98041427 -.00001770  00000-0 -93156-4 0  9991,2 51803  53.2178  98.4779 0001461  96.4676 263.6483 15.08835731135494,6917.893,95.438,540.769,538.748,0.0
51803.0,STARLINK-3544,PAYLOAD,2024-08-01 20:11:48,15.08852783,0.0001349,53.2171,94.611,87.5713,272.5433,0.001064,0.00016692,0.0,0 STARLINK-3544,1 51803U 22017AM  24214.84153540  .00016692  00000-0  10640-2 0  9999,2 51803  53.2171  94.6110 0001349  87.5713 272.5433 15.08852783135627,6917.841,95.437,540.64,538.773,0.0
51803.0,STARLINK-3544,PAYLOAD,2024-08-01 21:47:11,15.08855288,0.0001384,53.2174,94.3142,89.3513,270.7638,0.0010676,0.00016751,0.0,0 STARLINK-3544,1 51803U 22017AM  24214.90777475  .00016751  00000-0  10676-2 0  9990,2 51803  53.2174  94.3142 0001384  89.3513 270.7638 15.08855288135630,6917.834,95.437,540.656,538.741,0.0
51803.0,STARLINK-3544,PAYLOAD,2024-08-02 08:54:52,15.08879251,0.0001306,53.2169,92.2317,78.3238,281.79,0.0012816,0.00020189,0.0,0 STARLINK-3544,1 51803U 22017AM  24215.37144461  .00020189  00000-0  12816-2 0  9993,2 51803  53.2169  92.2317 0001306  78.3238 281.7900 15.08879251135709,6917.76,95.435,540.529,538.722,0.0
51803.0,STARLINK-3544,PAYLOAD,2024-08-02 20:02:35,15.08828238,0.0001568,53.2164,90.151,92.6467,267.4705,0.00045993,7.037e-05,0.0,0 STARLINK-3544,1 51803U 22017AM  24215.83513359  .00007037  00000-0  45993-3 0  9990,2 51803  53.2164  90.1510 0001568  92.6467 267.4705 15.08828238135779,6917.916,95.438,540.866,538.697,0.0
